CCSDS_OMM_VERS = 2.0
CREATION_DATE  = 
ORIGINATOR     = 

OBJECT_NAME    = SL-14 R/B
OBJECT_ID      = 1986-046B
CENTER_NAME    = EARTH
REF_FRAME      = TEME
TIME_SYSTEM    = UTC
MEAN_ELEMENT_THEORY = SGP/SGP4

EPOCH          = 2026-03-30T10:01:42.327264
MEAN_MOTION    = 14.85611015
ECCENTRICITY   = .00236779
INCLINATION    = 82.4806
RA_OF_ASC_NODE = 60.5914
ARG_OF_PERICENTER = 155.9679
MEAN_ANOMALY   = 204.2648

EPHEMERIS_TYPE = 0
CLASSIFICATION_TYPE = U
NORAD_CAT_ID   = 16792
ELEMENT_SET_NO = 999
REV_AT_EPOCH   = 12948
BSTAR          = .71327766E-4
MEAN_MOTION_DOT = .645E-5
MEAN_MOTION_DDOT = 0

CCSDS_OMM_VERS = 2.0
CREATION_DATE  = 
ORIGINATOR     = 

OBJECT_NAME    = SL-14 R/B
OBJECT_ID      = 1986-055B
CENTER_NAME    = EARTH
REF_FRAME      = TEME
TIME_SYSTEM    = UTC
MEAN_ELEMENT_THEORY = SGP/SGP4

EPOCH          = 2026-03-30T13:23:18.608064
MEAN_MOTION    = 14.85661488
ECCENTRICITY   = .00173206
INCLINATION    = 82.5169
RA_OF_ASC_NODE = 107.0542
ARG_OF_PERICENTER = 262.5594
MEAN_ANOMALY   = 214.7936

EPHEMERIS_TYPE = 0
CLASSIFICATION_TYPE = U
NORAD_CAT_ID   = 16882
ELEMENT_SET_NO = 999
REV_AT_EPOCH   = 12246
BSTAR          = .64123971E-4
MEAN_MOTION_DOT = .581E-5
MEAN_MOTION_DDOT = 0

CCSDS_OMM_VERS = 2.0
CREATION_DATE  = 
ORIGINATOR     = 

OBJECT_NAME    = AJISAI (EGS)
OBJECT_ID      = 1986-061A
CENTER_NAME    = EARTH
REF_FRAME      = TEME
TIME_SYSTEM    = UTC
MEAN_ELEMENT_THEORY = SGP/SGP4

EPOCH          = 2026-03-30T12:54:42.857856
MEAN_MOTION    = 12.44515627
ECCENTRICITY   = .00113415
INCLINATION    = 50.0115
RA_OF_ASC_NODE = 29.2382
ARG_OF_PERICENTER = 340.6825
MEAN_ANOMALY   = 191.7861

EPHEMERIS_TYPE = 0
CLASSIFICATION_TYPE = U
NORAD_CAT_ID   = 16908
ELEMENT_SET_NO = 999
REV_AT_EPOCH   = 47059
BSTAR          = -.65887197E-4
MEAN_MOTION_DOT = -.107E-5
MEAN_MOTION_DDOT = 0

CCSDS_OMM_VERS = 2.0
CREATION_DATE  = 
ORIGINATOR     = 

OBJECT_NAME    = SL-14 R/B
OBJECT_ID      = 1987-024B
CENTER_NAME    = EARTH
REF_FRAME      = TEME
TIME_SYSTEM    = UTC
MEAN_ELEMENT_THEORY = SGP/SGP4

EPOCH          = 2026-03-30T10:38:55.263552
MEAN_MOTION    = 14.86152446
ECCENTRICITY   = .00179593
INCLINATION    = 82.5255
RA_OF_ASC_NODE = 73.2513
ARG_OF_PERICENTER = 187.1067
MEAN_ANOMALY   = 172.9898

EPHEMERIS_TYPE = 0
CLASSIFICATION_TYPE = U
NORAD_CAT_ID   = 17567
ELEMENT_SET_NO = 999
REV_AT_EPOCH   = 9121
BSTAR          = .69804956E-4
MEAN_MOTION_DOT = .638E-5
MEAN_MOTION_DDOT = 0

CCSDS_OMM_VERS = 2.0
CREATION_DATE  = 
ORIGINATOR     = 

OBJECT_NAME    = COSMOS 1833
OBJECT_ID      = 1987-027A
CENTER_NAME    = EARTH
REF_FRAME      = TEME
TIME_SYSTEM    = UTC
MEAN_ELEMENT_THEORY = SGP/SGP4

EPOCH          = 2026-03-30T12:44:30.249888
MEAN_MOTION    = 14.13046685
ECCENTRICITY   = .00231915
INCLINATION    = 70.9170
RA_OF_ASC_NODE = 282.2128
ARG_OF_PERICENTER = 183.7360
MEAN_ANOMALY   = 176.3592

EPHEMERIS_TYPE = 0
CLASSIFICATION_TYPE = U
NORAD_CAT_ID   = 17589
ELEMENT_SET_NO = 999
REV_AT_EPOCH   = 1326
BSTAR          = -.12596102E-3
MEAN_MOTION_DOT = -.284E-5
MEAN_MOTION_DDOT = 0

CCSDS_OMM_VERS = 2.0
CREATION_DATE  = 
ORIGINATOR     = 

OBJECT_NAME    = SL-16 R/B
OBJECT_ID      = 1987-027B
CENTER_NAME    = EARTH
REF_FRAME      = TEME
TIME_SYSTEM    = UTC
MEAN_ELEMENT_THEORY = SGP/SGP4

EPOCH          = 2026-03-30T14:02:48.394176
MEAN_MOTION    = 14.17166038
ECCENTRICITY   = .00028614
INCLINATION    = 71.0017
RA_OF_ASC_NODE = 232.4588
ARG_OF_PERICENTER = 91.1173
MEAN_ANOMALY   = 269.0279

EPHEMERIS_TYPE = 0
CLASSIFICATION_TYPE = U
NORAD_CAT_ID   = 17590
ELEMENT_SET_NO = 999
REV_AT_EPOCH   = 1830
BSTAR          = .71859474E-4
MEAN_MOTION_DOT = .97E-6
MEAN_MOTION_DDOT = 0

CCSDS_OMM_VERS = 2.0
CREATION_DATE  = 
ORIGINATOR     = 

OBJECT_NAME    = SL-14 R/B
OBJECT_ID      = 1987-038B
CENTER_NAME    = EARTH
REF_FRAME      = TEME
TIME_SYSTEM    = UTC
MEAN_ELEMENT_THEORY = SGP/SGP4

EPOCH          = 2026-03-30T12:24:01.448352
MEAN_MOTION    = 14.85388645
ECCENTRICITY   = .00207643
INCLINATION    = 82.4977
RA_OF_ASC_NODE = 277.1819
ARG_OF_PERICENTER = 95.4817
MEAN_ANOMALY   = 264.8769

EPHEMERIS_TYPE = 0
CLASSIFICATION_TYPE = U
NORAD_CAT_ID   = 17912
ELEMENT_SET_NO = 999
REV_AT_EPOCH   = 8232
BSTAR          = .70201917E-4
MEAN_MOTION_DOT = .631E-5
MEAN_MOTION_DDOT = 0

CCSDS_OMM_VERS = 2.0
CREATION_DATE  = 
ORIGINATOR     = 

OBJECT_NAME    = COSMOS 1844
OBJECT_ID      = 1987-041A
CENTER_NAME    = EARTH
REF_FRAME      = TEME
TIME_SYSTEM    = UTC
MEAN_ELEMENT_THEORY = SGP/SGP4

EPOCH          = 2026-03-30T11:21:22.455648
MEAN_MOTION    = 14.14558043
ECCENTRICITY   = .003116
INCLINATION    = 70.9016
RA_OF_ASC_NODE = 350.3397
ARG_OF_PERICENTER = 347.4717
MEAN_ANOMALY   = 12.5626

EPHEMERIS_TYPE = 0
CLASSIFICATION_TYPE = U
NORAD_CAT_ID   = 17973
ELEMENT_SET_NO = 999
REV_AT_EPOCH   = 652
BSTAR          = .23828706E-3
MEAN_MOTION_DOT = .411E-5
MEAN_MOTION_DDOT = 0

CCSDS_OMM_VERS = 2.0
CREATION_DATE  = 
ORIGINATOR     = 

OBJECT_NAME    = SL-14 R/B
OBJECT_ID      = 1987-055B
CENTER_NAME    = EARTH
REF_FRAME      = TEME
TIME_SYSTEM    = UTC
MEAN_ELEMENT_THEORY = SGP/SGP4

EPOCH          = 2026-03-30T14:59:22.835904
MEAN_MOTION    = 14.85650353
ECCENTRICITY   = .00194115
INCLINATION    = 82.5004
RA_OF_ASC_NODE = 329.3035
ARG_OF_PERICENTER = 307.1843
MEAN_ANOMALY   = 52.7600

EPHEMERIS_TYPE = 0
CLASSIFICATION_TYPE = U
NORAD_CAT_ID   = 18153
ELEMENT_SET_NO = 999
REV_AT_EPOCH   = 7304
BSTAR          = .59183757E-4
MEAN_MOTION_DOT = .538E-5
MEAN_MOTION_DDOT = 0

CCSDS_OMM_VERS = 2.0
CREATION_DATE  = 
ORIGINATOR     = 

OBJECT_NAME    = COSMOS 1867
OBJECT_ID      = 1987-060A
CENTER_NAME    = EARTH
REF_FRAME      = TEME
TIME_SYSTEM    = UTC
MEAN_ELEMENT_THEORY = SGP/SGP4

EPOCH          = 2026-03-30T12:56:47.220288
MEAN_MOTION    = 14.31506329
ECCENTRICITY   = .0014852
INCLINATION    = 65.0096
RA_OF_ASC_NODE = 248.3124
ARG_OF_PERICENTER = 279.8731
MEAN_ANOMALY   = 80.0677

EPHEMERIS_TYPE = 0
CLASSIFICATION_TYPE = U
NORAD_CAT_ID   = 18187
ELEMENT_SET_NO = 999
REV_AT_EPOCH   = 2292
BSTAR          = .27081728E-4
MEAN_MOTION_DOT = -.28E-6
MEAN_MOTION_DDOT = 0

CCSDS_OMM_VERS = 2.0
CREATION_DATE  = 
ORIGINATOR     = 

OBJECT_NAME    = SL-14 R/B
OBJECT_ID      = 1988-001B
CENTER_NAME    = EARTH
REF_FRAME      = TEME
TIME_SYSTEM    = UTC
MEAN_ELEMENT_THEORY = SGP/SGP4

EPOCH          = 2026-03-30T11:40:48.412416
MEAN_MOTION    = 14.85550813
ECCENTRICITY   = .00184803
INCLINATION    = 82.5159
RA_OF_ASC_NODE = 175.8063
ARG_OF_PERICENTER = 165.0962
MEAN_ANOMALY   = 195.0803

EPHEMERIS_TYPE = 0
CLASSIFICATION_TYPE = U
NORAD_CAT_ID   = 18749
ELEMENT_SET_NO = 999
REV_AT_EPOCH   = 4511
BSTAR          = .66288353E-4
MEAN_MOTION_DOT = .599E-5
MEAN_MOTION_DDOT = 0

CCSDS_OMM_VERS = 2.0
CREATION_DATE  = 
ORIGINATOR     = 

OBJECT_NAME    = COSMOS 1933
OBJECT_ID      = 1988-020A
CENTER_NAME    = EARTH
REF_FRAME      = TEME
TIME_SYSTEM    = UTC
MEAN_ELEMENT_THEORY = SGP/SGP4

EPOCH          = 2026-03-30T11:41:43.450080
MEAN_MOTION    = 15.18181753
ECCENTRICITY   = .00052996
INCLINATION    = 82.5122
RA_OF_ASC_NODE = 230.3299
ARG_OF_PERICENTER = 119.4704
MEAN_ANOMALY   = 240.7059

EPHEMERIS_TYPE = 0
CLASSIFICATION_TYPE = U
NORAD_CAT_ID   = 18958
ELEMENT_SET_NO = 999
REV_AT_EPOCH   = 5338
BSTAR          = .30227912E-3
MEAN_MOTION_DOT = .6208E-4
MEAN_MOTION_DDOT = 0

